[
    {
        "Altitude(m)": 612502.2513507073,
        "Argument of Periapsis(deg)": 0.0,
        "Eccentricity": 0.0,
        "Inclination(deg)": 60.0,
        "Latitude(deg)": -28.136156739920857,
        "Longitude(deg)": -97.85176653416272,
        "Mean Anomaly(deg)": 327.2727,
        "RAAN(deg)": 20.0,
        "Satellite Name": "Test1 108",
        "Satellite Number": 108,
        "Semi-Major Axis(m)": 6980739.136638005,
        "Time(s)": 0
    },
    {
        "Altitude(m)": 612308.6986058885,
        "Argument of Periapsis(deg)": 0.00010418945913296404,
        "Eccentricity": 0.0,
        "Inclination(deg)": 60.0,
        "Latitude(deg)": -27.62321224344103,
        "Longitude(deg)": -97.49829145644655,
        "Mean Anomaly(deg)": 327.8928061454618,
        "RAAN(deg)": 19.99957995086026,
        "Satellite Name": "Test1 108",
        "Satellite Number": 108,
        "Semi-Major Axis(m)": 6980739.136638005,
        "Time(s)": 10
    }
]